DELTA 2 R/B(1)          
1 20453U 90008B   26177.98570713  .00084532  00000+0  58582-3 0  9996
2 20453  35.5990 170.0351 0064423 207.3523 152.3819 15.70332940943240
COSMOS 2058             
1 20465U 90010A   26177.79737676  .00003320  00000+0  19123-3 0  9998
2 20465  82.4694 299.8777 0008660 322.3986  37.6638 15.12074797958721
SL-14 R/B               
1 20466U 90010B   26177.94708659  .00000378  00000+0  42798-4 0  9990
2 20466  82.5019 164.7788 0018402 302.3953  57.5481 14.83652192944688
SL-14 R/B               
1 20511U 90018B   26177.93508583  .00000386  00000+0  45338-4 0  9994
2 20511  82.5218 120.9968 0017716  92.2932 268.0311 14.82222364938769
HST                     
1 20580U 90037B   26177.92228016  .00007114  00000+0  22414-3 0  9995
2 20580  28.4734  14.0366 0001405 260.4690  99.5747 15.30856861790068
SL-16 R/B               
1 20625U 90046B   26177.98631307 -.00000215  00000+0 -86237-4 0  9993
2 20625  71.0000  68.3690 0012687 146.2289 213.9645 14.15026315863851
COSMOS 2084             
1 20663U 90055A   26177.82128328  .00002369  00000+0  17468-3 0  9991
2 20663  62.7908 323.2066 0006108 295.7526  64.2944 15.06154696952754
SL-6 R/B(2)             
1 20666U 90055D   26177.88934160  .00001390  00000+0  11289-3 0  9997
2 20666  62.7810 242.3606 0042254   6.4502 353.7132 15.04030873954613
SL-8 R/B                
1 20775U 90078B   26177.91579805  .00026586  00000+0  75128-3 0  9994
2 20775  82.9009 152.8515 0348178   5.6694 354.8304 14.92789381825575
SL-8 R/B                
1 21088U 91006B   26177.87048418  .00000051  00000+0  35831-4 0  9997
2 21088  82.9425  88.8305 0023864  89.0046 338.6688 13.77506731779109
OKEAN-3                 
1 21397U 91039A   26177.57759796  .00002187  00000+0  15052-3 0  9995
2 21397  82.5165 231.2762 0012971 322.9741  37.0590 15.05367965881415
COSMOS 2151             
1 21422U 91042A   26177.92961308  .00001796  00000+0  14036-3 0  9997
2 21422  82.4965 338.2778 0013487  54.5504 305.6977 15.00464669879575
SL-14 R/B               
1 21423U 91042B   26177.94366819  .00000342  00000+0  40199-4 0  9992
2 21423  82.4936 117.7467 0015583 239.5869 120.3806 14.81908201869257
ERS-1                   
1 21574U 91050A   26177.96536902  .00000287  00000+0  10637-3 0  9993
2 21574  98.7794 198.9024 0030868 236.8716 122.9508 14.39522662831454
ARIANE 40 R/B           
1 21610U 91050F   26177.89566510  .00000264  00000+0  91420-4 0  9999
2 21610  98.1871 225.9343 0004469 100.5047 259.6648 14.42962242834746
INTERCOSMOS 25          
1 21819U 91086A   26177.93379474  .00000824  00000+0  16365-3 0  9991
2 21819  82.6040 243.9119 1483981 241.3462 103.0604 12.12212219509920
SL-8 R/B                
1 21876U 92008B   26177.81984309  .00000159  00000+0  14763-3 0  9996
2 21876  82.9259 186.6253 0034447 187.3752 346.1076 13.75979467724421
SL-8 R/B                
1 21938U 92020B   26177.80176588  .00000058  00000+0  44729-4 0  9994
2 21938  82.9304  72.7161 0029042 356.1196  68.1992 13.75549824716134
USA 81                  
1 21949U 92023A   26177.98486070  .00000152  00000+0  48963-4 0  9997
2 21949  85.0071  68.3527 0002636  76.3693 283.7793 14.32400582110437
COSMOS 2219             
1 22219U 92076A   26177.95238343  .00000295  00000+0  17933-3 0  9991
2 22219  71.0598 149.6575 0017099  27.6134 332.5893 14.14106142733824
SL-16 R/B               
1 22220U 92076B   26177.86304196 -.00000101  00000+0 -26368-4 0  9994
2 22220  71.0013 318.3977 0014985 285.9576 236.5700 14.16875664737298
COSMOS 2221             
1 22236U 92080A   26177.96779876  .00001460  00000+0  12585-3 0  9990
2 22236  82.5031 174.3937 0014168 178.2670 181.8604 14.96557107797131
SL-16 R/B               
1 22285U 92093B   26177.92417393  .00000202  00000+0  12772-3 0  9998
2 22285  71.0206 134.9504 0003458 169.7993 190.3201 14.15461125728617
COSMOS 2228             
1 22286U 92094A   26177.97632041  .00001914  00000+0  16119-3 0  9994
2 22286  82.5179 132.6662 0016112 296.7702  63.1872 14.97620574792419
SL-16 R/B               
1 22566U 93016B   26177.90524634 -.00000157  00000+0 -56147-4 0  9997
2 22566  71.0088 345.7951 0009553 169.7825 190.3494 14.15315694717623
COSMOS 2242             
1 22626U 93024A   26177.94024522  .00001682  00000+0  14396-3 0  9999
2 22626  82.5182 162.2115 0014639 301.1031  58.8754 14.96931669796739
SL-16 R/B               
1 22803U 93059B   26177.94767883  .00000080  00000+0  63235-4 0  9996
2 22803  70.9892 140.7205 0015656  37.7801 322.4418 14.17247367695017
ARIANE 40 R/B           
1 22830U 93061H   26177.91150024  .00000161  00000+0  74750-4 0  9993
2 22830  98.4816 244.5665 0009874 326.2949  33.7607 14.32911441709741
COSMOS 2278             
1 23087U 94023A   26177.79447266 -.00000160  00000+0 -59127-4 0  9992
2 23087  71.0552 306.8241 0010451 232.2676 127.7500 14.14398294660239
SL-16 R/B               
1 23088U 94023B   26177.79195577 -.00000087  00000+0 -20295-4 0  9990
2 23088  70.9986 201.7605 0002082 179.0632 181.0494 14.15027612661529
SL-16 R/B               
1 23343U 94074B   26177.95501961  .00000413  00000+0  61793-4 0  9995
2 23343  97.6987 204.2689 0005625 214.4045 212.7633 14.79510027703406
SL-16 R/B               
1 23405U 94077B   26177.94299140  .00000133  00000+0  92649-4 0  9992
2 23405  70.9828 122.6381 0003463 319.4049  40.6815 14.15577326631699
ARIANE 40+ R/B          
1 23561U 95021B   26177.94387306  .00000237  00000+0  89294-4 0  9994
2 23561  98.4408 247.8778 0007078 164.7693   8.1637 14.39838302634967
SL-16 R/B               
1 23705U 95058B   26177.81389298 -.00000082  00000+0 -17359-4 0  9995
2 23705  71.0229 311.1461 0014377 307.1995  52.7815 14.15512029583298
SL-16 R/B               
1 24298U 96051B   26177.80445636  .00000122  00000+0  92715-4 0  9997
2 24298  70.7650 304.2950 0016292 322.9836  37.0158 14.12449235537057
ORBVIEW 2 (SEASTAR)     
1 24883U 97037A   26177.91724949  .00000252  00000+0  10384-3 0  9996
2 24883  98.8695 345.2062 0003331  96.9894 263.1669 14.35558141524145
SL-16 R/B               
1 25400U 98043G   26177.90501448  .00000035  00000+0  33463-4 0  9999
2 25400  98.8368 132.1481 0010828  61.0382 299.1882 14.26070135454555
SL-16 R/B               
1 25407U 98045B   26177.84192910  .00000233  00000+0  14159-3 0  9991
2 25407  71.0120 312.0244 0008951 229.1792 130.8555 14.16203739442555
ISS (ZARYA)             
1 25544U 98067A   26177.67101756  .00008101  00000+0  15268-3 0  9990
2 25544  51.6322 253.1475 0004299 235.1263 124.9322 15.49442433573225
CZ-4B R/B               
1 25732U 99025C   26177.89543418  .00000055  00000+0  47316-4 0  9993
2 25732  98.6480 219.4895 0037679  32.3210 140.1044 14.18284939403647
OKEAN-O                 
1 25860U 99039A   26177.87733474  .00000604  00000+0  85819-4 0  9991
2 25860  97.9312 236.5639 0001302  70.3432 289.7921 14.80478305450549
SL-16 R/B               
1 25861U 99039B   26177.89010304  .00000476  00000+0  66920-4 0  9993
2 25861  97.9833 236.7254 0013384 262.2145  97.7548 14.81853953453035
DELTA 2 R/B             
1 25876U 99041E   26177.87246414  .00000969  00000+0  19389-3 0  9996
2 25876  51.7630 225.1058 0500986 310.6442  45.1934 14.12031274378451
HELIOS 1B               
1 25977U 99064A   26177.72734845  .00001272  00000+0  14492-3 0  9995
2 25977  98.1608  83.1429 0002509  78.4437 281.7061 14.88029946701475
TERRA                   
1 25994U 99068A   26177.95492160  .00000370  00000+0  84257-4 0  9999
2 25994  97.9451 227.1137 0002353 161.3935 299.0284 14.61110261411036
SL-16 R/B               
1 26070U 00006B   26177.88564119  .00000292  00000+0  17247-3 0  9992
2 26070  71.0014 228.2329 0016150   7.8050 352.3321 14.15838541364014
TITAN 4B R/B            
1 26474U 00047B   26177.92840354  .00002934  00000+0  18290-3 0  9992
2 26474  67.9894  93.1533 0045916 277.1894  82.4037 15.10249348409403
ENVISAT                 
1 27386U 02009A   26177.84291554  .00000064  00000+0  34568-4 0  9997
2 27386  98.3838 128.9462 0001386  86.9429 327.2079 14.39066839274872
IDEFIX & ARIANE 42P R/B 
1 27422U 02021B   26177.84804461  .00000185  00000+0  86780-4 0  9996
2 27422  98.5943 115.2266 0010839 222.4311 137.6035 14.31086203259634
AQUA                    
1 27424U 02022A   26177.90161929  .00000763  00000+0  16139-3 0  9993
2 27424  98.4280 147.3787 0000776  67.0038 318.4828 14.62171922284691
CZ-4B R/B               
1 27432U 02024C   26177.88200126  .00000024  00000+0  35212-4 0  9998
2 27432  98.8696 230.6391 0051179  73.2756 100.0086 14.14565564244672
MIDORI II (ADEOS-II)    
1 27597U 02056A   26177.86826992  .00000234  00000+0  10958-3 0  9990
2 27597  98.7883 137.2106 0002084  64.4124 295.7272 14.29354484225894
H-2A R/B                
1 27601U 02056E   26177.92271407  .00000191  00000+0  81479-4 0  9997
2 27601  98.3316 134.2426 0069706 195.2393 234.0695 14.33826031229766
CZ-4B R/B               
1 28059U 03049C   26177.92691599  .00000273  00000+0  74249-4 0  9994
2 28059  98.6899 177.1613 0046899 258.0997 101.4938 14.55105946202489
CZ-2C R/B               
1 28222U 04012C   26177.72442033  .00107002  00000+0  54965-3 0  9992
2 28222  97.7078 254.5098 0010458 247.9727 112.0430 15.80852110221406
SL-16 R/B               
1 28353U 04021B   26177.91955651  .00000125  00000+0  89861-4 0  9995
2 28353  71.0006   3.2632 0006852 242.3305 117.7122 14.14607529138285
CZ-4B R/B               
1 28415U 04035C   26177.80770686  .00007567  00000+0  25392-3 0  9995
2 28415  97.3366 210.7729 0029051 302.1008  57.7413 15.30755512196596
CZ-2C R/B               
1 28480U 04046B   26177.72743601  .00000072  00000+0  42081-4 0  9996
2 28480  98.1938  85.9119 0139018 191.9143 167.8740 14.27028463124057
ARIANE 5 R/B            
1 28499U 04049H   26177.96475113  .00000533  00000+0  65257-4 0  9997
2 28499  98.2727 350.5956 0083777 357.8600   2.2243 14.85459946162011
